IRIDIUM 921             
1 24873U 97034E   24179.19811608  .00035668  00000+0  88881-3 0  9997
2 24873  86.3806 283.1554 0004543 185.9621 174.1580 15.40066106477006
IRIDIUM 26              
1 24903U 97043A   24179.49952625  .00000603  00000+0  19933-3 0  9992
2 24903  86.3955 259.4271 0002222 100.3005 259.8443 14.36413456406285
IRIDIUM 22              
1 24907U 97043E   24179.49345498  .00000598  00000+0  20190-3 0  9990
2 24907  86.3958 262.6755 0002215  93.6880 266.4570 14.35301632405872
DUMMY MASS 1            
1 24925U 97048A   24179.56157835  .00000712  00000+0  77782-4 0  9997
2 24925  86.3346 299.1943 0005684 342.8776  17.2256 14.86258386452680
DUMMY MASS 2            
1 24926U 97048B   24179.39788032  .00000704  00000+0  77335-4 0  9993
2 24926  86.3346 300.8153 0006916 353.2881   6.8249 14.86015993452441
IRIDIUM 29              
1 24944U 97051A   24178.72648187  .00000572  00000+0  19105-3 0  9992
2 24944  86.3953 292.9039 0002079  87.7288 272.4147 14.35749003402257
IRIDIUM 33              
1 24946U 97051C   24178.69244255  .00000476  00000+0  16234-3 0  9991
2 24946  86.3869 292.1689 0009023 146.3411 213.8359 14.34398178401776
IRIDIUM 28              
1 24948U 97051E   24179.55983550  .00000671  00000+0  22121-3 0  9996
2 24948  86.3960 290.2716 0002323 104.4339 255.7116 14.36704349402983
